{
    "links": {
        "self": "http://www.neowsapp.com/rest/v1/neo/3841887?api_key=iIulBulltgU6a56xZRHN4H3l9WmuAYTsLGpBGhQ2"
    },
    "id": "3841887",
    "neo_reference_id": "3841887",
    "name": "(2019 JF6)",
    "designation": "2019 JF6",
    "nasa_jpl_url": "http://ssd.jpl.nasa.gov/sbdb.cgi?sstr=3841887",
    "absolute_magnitude_h": 22.9,
    "estimated_diameter": {
        "kilometers": {
            "estimated_diameter_min": 0.0699125232,
            "estimated_diameter_max": 0.1563291544
        },
        "meters": {
            "estimated_diameter_min": 69.9125232246,
            "estimated_diameter_max": 156.3291544087
        },
        "miles": {
            "estimated_diameter_min": 0.0434416145,
            "estimated_diameter_max": 0.097138403
        },
        "feet": {
            "estimated_diameter_min": 229.3718026961,
            "estimated_diameter_max": 512.8909429502
        }
    },
    "is_potentially_hazardous_asteroid": false,
    "close_approach_data": [
        {
            "close_approach_date": "2019-05-06",
            "close_approach_date_full": "2019-May-06 20:54",
            "epoch_date_close_approach": 1557176040000,
            "relative_velocity": {
                "kilometers_per_second": "5.5662415923",
                "kilometers_per_hour": "20038.4697322451",
                "miles_per_hour": "12451.1258177942"
            },
            "miss_distance": {
                "astronomical": "0.258748477",
                "lunar": "100.653157553",
                "kilometers": "38708221.02494399",
                "miles": "24052173.230807462"
            },
            "orbiting_body": "Earth"
        }
    ],
    "orbital_data": {
        "orbit_id": "3",
        "orbit_determination_date": "2019-05-30 06:31:13",
        "first_observation_date": "2019-05-10",
        "last_observation_date": "2019-05-30",
        "data_arc_in_days": 20,
        "observations_used": 22,
        "orbit_uncertainty": "8",
        "minimum_orbit_intersection": ".2546",
        "jupiter_tisserand_invariant": "3.304",
        "epoch_osculation": "2458615.5",
        "eccentricity": ".4905937704270128",
        "semi_major_axis": "2.451065429645602",
        "inclination": "8.952427663768962",
        "ascending_node_longitude": "70.76065484006558",
        "orbital_period": "1401.621606903846",
        "perihelion_distance": "1.24858799895246",
        "perihelion_argument": "146.9931558674081",
        "aphelion_distance": "3.653542860338744",
        "perihelion_time": "2458604.071643625601",
        "mean_anomaly": "2.935320256564712",
        "mean_motion": ".2568453555701334",
        "equinox": "J2000",
        "orbit_class": {
            "orbit_class_type": "AMO",
            "orbit_class_description": "Near-Earth asteroid orbits similar to that of 1221 Amor",
            "orbit_class_range": "1.017 AU < q (perihelion) < 1.3 AU"
        }
    },
    "is_sentry_object": false
}